CCSDS_OMM_VERS = 2.0
CREATION_DATE  = 
ORIGINATOR     = 

OBJECT_NAME    = SL-14 R/B
OBJECT_ID      = 1986-046B
CENTER_NAME    = EARTH
REF_FRAME      = TEME
TIME_SYSTEM    = UTC
MEAN_ELEMENT_THEORY = SGP/SGP4

EPOCH          = 2026-01-27T07:35:15.242496
MEAN_MOTION    = 14.85547364
ECCENTRICITY   = .00232674
INCLINATION    = 82.4832
RA_OF_ASC_NODE = 119.2746
ARG_OF_PERICENTER = 8.6110
MEAN_ANOMALY   = 351.5500

EPHEMERIS_TYPE = 0
CLASSIFICATION_TYPE = U
NORAD_CAT_ID   = 16792
ELEMENT_SET_NO = 999
REV_AT_EPOCH   = 12026
BSTAR          = .93161078E-4
MEAN_MOTION_DOT = .833E-5
MEAN_MOTION_DDOT = 0

CCSDS_OMM_VERS = 2.0
CREATION_DATE  = 
ORIGINATOR     = 

OBJECT_NAME    = SL-14 R/B
OBJECT_ID      = 1986-055B
CENTER_NAME    = EARTH
REF_FRAME      = TEME
TIME_SYSTEM    = UTC
MEAN_ELEMENT_THEORY = SGP/SGP4

EPOCH          = 2026-01-26T20:38:42.158688
MEAN_MOTION    = 14.85592856
ECCENTRICITY   = .00203332
INCLINATION    = 82.5222
RA_OF_ASC_NODE = 165.9751
ARG_OF_PERICENTER = 109.2469
MEAN_ANOMALY   = 51.5937

EPHEMERIS_TYPE = 0
CLASSIFICATION_TYPE = U
NORAD_CAT_ID   = 16882
ELEMENT_SET_NO = 999
REV_AT_EPOCH   = 11315
BSTAR          = .11239737E-3
MEAN_MOTION_DOT = .1E-4
MEAN_MOTION_DDOT = 0

CCSDS_OMM_VERS = 2.0
CREATION_DATE  = 
ORIGINATOR     = 

OBJECT_NAME    = AJISAI (EGS)
OBJECT_ID      = 1986-061A
CENTER_NAME    = EARTH
REF_FRAME      = TEME
TIME_SYSTEM    = UTC
MEAN_ELEMENT_THEORY = SGP/SGP4

EPOCH          = 2026-01-27T06:11:07.000224
MEAN_MOTION    = 12.44515277
ECCENTRICITY   = .00112855
INCLINATION    = 50.0061
RA_OF_ASC_NODE = 220.7518
ARG_OF_PERICENTER = 180.5006
MEAN_ANOMALY   = 161.9145

EPHEMERIS_TYPE = 0
CLASSIFICATION_TYPE = U
NORAD_CAT_ID   = 16908
ELEMENT_SET_NO = 999
REV_AT_EPOCH   = 46283
BSTAR          = .1421875E-3
MEAN_MOTION_DOT = -.77E-6
MEAN_MOTION_DDOT = 0

CCSDS_OMM_VERS = 2.0
CREATION_DATE  = 
ORIGINATOR     = 

OBJECT_NAME    = COSMOS 1812
OBJECT_ID      = 1987-003A
CENTER_NAME    = EARTH
REF_FRAME      = TEME
TIME_SYSTEM    = UTC
MEAN_ELEMENT_THEORY = SGP/SGP4

EPOCH          = 2026-01-27T00:58:29.688960
MEAN_MOTION    = 15.88724515
ECCENTRICITY   = .00009967
INCLINATION    = 82.4801
RA_OF_ASC_NODE = 242.5496
ARG_OF_PERICENTER = 33.2832
MEAN_ANOMALY   = 326.8502

EPHEMERIS_TYPE = 0
CLASSIFICATION_TYPE = U
NORAD_CAT_ID   = 17295
ELEMENT_SET_NO = 999
REV_AT_EPOCH   = 13781
BSTAR          = .81765633E-3
MEAN_MOTION_DOT = .234121E-2
MEAN_MOTION_DDOT = 0

CCSDS_OMM_VERS = 2.0
CREATION_DATE  = 
ORIGINATOR     = 

OBJECT_NAME    = SL-14 R/B
OBJECT_ID      = 1987-024B
CENTER_NAME    = EARTH
REF_FRAME      = TEME
TIME_SYSTEM    = UTC
MEAN_ELEMENT_THEORY = SGP/SGP4

EPOCH          = 2026-01-27T07:08:05.599392
MEAN_MOTION    = 14.86088557
ECCENTRICITY   = .00192068
INCLINATION    = 82.5303
RA_OF_ASC_NODE = 131.6610
ARG_OF_PERICENTER = 41.5637
MEAN_ANOMALY   = 318.7036

EPHEMERIS_TYPE = 0
CLASSIFICATION_TYPE = U
NORAD_CAT_ID   = 17567
ELEMENT_SET_NO = 999
REV_AT_EPOCH   = 8198
BSTAR          = .99764158E-4
MEAN_MOTION_DOT = .9E-5
MEAN_MOTION_DDOT = 0

CCSDS_OMM_VERS = 2.0
CREATION_DATE  = 
ORIGINATOR     = 

OBJECT_NAME    = COSMOS 1833
OBJECT_ID      = 1987-027A
CENTER_NAME    = EARTH
REF_FRAME      = TEME
TIME_SYSTEM    = UTC
MEAN_ELEMENT_THEORY = SGP/SGP4

EPOCH          = 2026-01-27T07:21:49.313664
MEAN_MOTION    = 14.13052043
ECCENTRICITY   = .00246112
INCLINATION    = 70.9196
RA_OF_ASC_NODE = 52.9939
ARG_OF_PERICENTER = 269.4605
MEAN_ANOMALY   = 90.3696

EPHEMERIS_TYPE = 0
CLASSIFICATION_TYPE = U
NORAD_CAT_ID   = 17589
ELEMENT_SET_NO = 999
REV_AT_EPOCH   = 447
BSTAR          = .13852689E-3
MEAN_MOTION_DOT = .211E-5
MEAN_MOTION_DDOT = 0

CCSDS_OMM_VERS = 2.0
CREATION_DATE  = 
ORIGINATOR     = 

OBJECT_NAME    = SL-16 R/B
OBJECT_ID      = 1987-027B
CENTER_NAME    = EARTH
REF_FRAME      = TEME
TIME_SYSTEM    = UTC
MEAN_ELEMENT_THEORY = SGP/SGP4

EPOCH          = 2026-01-27T04:31:31.662624
MEAN_MOTION    = 14.17160516
ECCENTRICITY   = .00058319
INCLINATION    = 71.0039
RA_OF_ASC_NODE = 3.9451
ARG_OF_PERICENTER = 208.8697
MEAN_ANOMALY   = 151.2105

EPHEMERIS_TYPE = 0
CLASSIFICATION_TYPE = U
NORAD_CAT_ID   = 17590
ELEMENT_SET_NO = 999
REV_AT_EPOCH   = 946
BSTAR          = .12605966E-3
MEAN_MOTION_DOT = .206E-5
MEAN_MOTION_DDOT = 0

CCSDS_OMM_VERS = 2.0
CREATION_DATE  = 
ORIGINATOR     = 

OBJECT_NAME    = SL-14 R/B
OBJECT_ID      = 1987-038B
CENTER_NAME    = EARTH
REF_FRAME      = TEME
TIME_SYSTEM    = UTC
MEAN_ELEMENT_THEORY = SGP/SGP4

EPOCH          = 2026-01-27T06:30:07.189920
MEAN_MOTION    = 14.85322674
ECCENTRICITY   = .00179715
INCLINATION    = 82.5038
RA_OF_ASC_NODE = 335.8140
ARG_OF_PERICENTER = 304.6095
MEAN_ANOMALY   = 55.3425

EPHEMERIS_TYPE = 0
CLASSIFICATION_TYPE = U
NORAD_CAT_ID   = 17912
ELEMENT_SET_NO = 999
REV_AT_EPOCH   = 7308
BSTAR          = .11424118E-3
MEAN_MOTION_DOT = .1008E-4
MEAN_MOTION_DDOT = 0

CCSDS_OMM_VERS = 2.0
CREATION_DATE  = 
ORIGINATOR     = 

OBJECT_NAME    = COSMOS 1844
OBJECT_ID      = 1987-041A
CENTER_NAME    = EARTH
REF_FRAME      = TEME
TIME_SYSTEM    = UTC
MEAN_ELEMENT_THEORY = SGP/SGP4

EPOCH          = 2026-01-27T07:33:31.614336
MEAN_MOTION    = 14.14534856
ECCENTRICITY   = .00284885
INCLINATION    = 70.8989
RA_OF_ASC_NODE = 121.4485
ARG_OF_PERICENTER = 84.3222
MEAN_ANOMALY   = 276.1147

EPHEMERIS_TYPE = 0
CLASSIFICATION_TYPE = U
NORAD_CAT_ID   = 17973
ELEMENT_SET_NO = 999
REV_AT_EPOCH   = 99773
BSTAR          = -.21457614E-4
MEAN_MOTION_DOT = -.9E-6
MEAN_MOTION_DDOT = 0

CCSDS_OMM_VERS = 2.0
CREATION_DATE  = 
ORIGINATOR     = 

OBJECT_NAME    = SL-14 R/B
OBJECT_ID      = 1987-055B
CENTER_NAME    = EARTH
REF_FRAME      = TEME
TIME_SYSTEM    = UTC
MEAN_ELEMENT_THEORY = SGP/SGP4

EPOCH          = 2026-01-27T06:07:11.169696
MEAN_MOTION    = 14.85576548
ECCENTRICITY   = .00214849
INCLINATION    = 82.4979
RA_OF_ASC_NODE = 28.0815
ARG_OF_PERICENTER = 146.8854
MEAN_ANOMALY   = 213.3712

EPHEMERIS_TYPE = 0
CLASSIFICATION_TYPE = U
NORAD_CAT_ID   = 18153
ELEMENT_SET_NO = 999
REV_AT_EPOCH   = 6378
BSTAR          = .92845424E-4
MEAN_MOTION_DOT = .83E-5
MEAN_MOTION_DDOT = 0

CCSDS_OMM_VERS = 2.0
CREATION_DATE  = 
ORIGINATOR     = 

OBJECT_NAME    = COSMOS 1867
OBJECT_ID      = 1987-060A
CENTER_NAME    = EARTH
REF_FRAME      = TEME
TIME_SYSTEM    = UTC
MEAN_ELEMENT_THEORY = SGP/SGP4

EPOCH          = 2026-01-27T07:01:30.582912
MEAN_MOTION    = 14.31495817
ECCENTRICITY   = .00139755
INCLINATION    = 65.0102
RA_OF_ASC_NODE = 62.6356
ARG_OF_PERICENTER = 275.4491
MEAN_ANOMALY   = 84.4999

EPHEMERIS_TYPE = 0
CLASSIFICATION_TYPE = U
NORAD_CAT_ID   = 18187
ELEMENT_SET_NO = 999
REV_AT_EPOCH   = 1401
BSTAR          = .50046263E-4
MEAN_MOTION_DOT = .33E-6
MEAN_MOTION_DDOT = 0

CCSDS_OMM_VERS = 2.0
CREATION_DATE  = 
ORIGINATOR     = 

OBJECT_NAME    = SL-14 R/B
OBJECT_ID      = 1988-001B
CENTER_NAME    = EARTH
REF_FRAME      = TEME
TIME_SYSTEM    = UTC
MEAN_ELEMENT_THEORY = SGP/SGP4

EPOCH          = 2026-01-27T01:05:25.191744
MEAN_MOTION    = 14.85477712
ECCENTRICITY   = .00186033
INCLINATION    = 82.5103
RA_OF_ASC_NODE = 234.5331
ARG_OF_PERICENTER = 20.6705
MEAN_ANOMALY   = 339.5260

EPHEMERIS_TYPE = 0
CLASSIFICATION_TYPE = U
NORAD_CAT_ID   = 18749
ELEMENT_SET_NO = 999
REV_AT_EPOCH   = 3584
BSTAR          = .78462988E-4
MEAN_MOTION_DOT = .703E-5
MEAN_MOTION_DDOT = 0

