SL-14 R/B               
1 16792U 86046B   26027.31614864  .00000833  00000+0  93161-4 0  9996
2 16792  82.4832 119.2746 0023267   8.6110 351.5500 14.85547364120267
SL-14 R/B               
1 16882U 86055B   26026.86021017  .00001000  00000+0  11240-3 0  9991
2 16882  82.5222 165.9751 0020333 109.2469  51.5937 14.85592856113158
AJISAI (EGS)            
1 16908U 86061A   26027.25771991 -.00000077  00000+0  14219-3 0  9997
2 16908  50.0061 220.7518 0011285 180.5006 161.9145 12.44515277462838
COSMOS 1812             
1 17295U 87003A   26027.04062140  .00234121  00000+0  81766-3 0  9999
2 17295  82.4801 242.5496 0000996  33.2832 326.8502 15.88724515137818
SL-14 R/B               
1 17567U 87024B   26027.29728703  .00000900  00000+0  99764-4 0  9999
2 17567  82.5303 131.6610 0019206  41.5637 318.7036 14.86088557 81987
COSMOS 1833             
1 17589U 87027A   26027.30682076  .00000211  00000+0  13853-3 0  9999
2 17589  70.9196  52.9939 0024611 269.4605  90.3696 14.13052043  4478
SL-16 R/B               
1 17590U 87027B   26027.18856091  .00000206  00000+0  12606-3 0  9996
2 17590  71.0039   3.9451 0005831 208.8697 151.2105 14.17160516  9469
SL-14 R/B               
1 17912U 87038B   26027.27091655  .00001008  00000+0  11424-3 0  9991
2 17912  82.5038 335.8140 0017971 304.6095  55.3425 14.85322674 73088
COSMOS 1844             
1 17973U 87041A   26027.31494924 -.00000090  00000+0 -21458-4 0  9994
2 17973  70.8989 121.4485 0028488  84.3222 276.1147 14.14534856997730
SL-14 R/B               
1 18153U 87055B   26027.25499039  .00000830  00000+0  92845-4 0  9993
2 18153  82.4979  28.0815 0021484 146.8854 213.3712 14.85576548 63784
COSMOS 1867             
1 18187U 87060A   26027.29271508  .00000033  00000+0  50046-4 0  9991
2 18187  65.0102  62.6356 0013975 275.4491  84.4999 14.31495817 14018
SL-14 R/B               
1 18749U 88001B   26027.04543046  .00000703  00000+0  78463-4 0  9990
2 18749  82.5103 234.5331 0018603  20.6705 339.5260 14.85477712 35843
